{
  "norad_id": 52464,
  "name": "STARLINK-3904",
  "history": [
    {
      "epoch": "2026-03-28T21:10:03.710496Z",
      "apogee_km": 540.7132498312449,
      "perigee_km": 538.7654525658027,
      "latitude_deg": -3.2387412079272953e-05,
      "longitude_deg": -170.8457468387483,
      "height_km": 540.6068939304296,
      "semi_major_axis_km": 6917.8763511985235,
      "eccentricity": 0.00014078,
      "inclination_deg": 53.2192,
      "raan_deg": 332.9658,
      "arg_perigee_deg": 88.3351,
      "mean_anomaly_deg": 271.7802,
      "mean_motion_rev_day": 15.08841321
    },
    {
      "epoch": "2026-03-29T01:56:12.878304Z",
      "apogee_km": 540.6966019094543,
      "perigee_km": 538.7582163020224,
      "latitude_deg": -4.773003850013292e-05,
      "longitude_deg": 116.52727791964737,
      "height_km": 540.6600506664407,
      "semi_major_axis_km": 6917.864409105738,
      "eccentricity": 0.0001401,
      "inclination_deg": 53.2191,
      "raan_deg": 332.0729,
      "arg_perigee_deg": 92.1761,
      "mean_anomaly_deg": 267.9391,
      "mean_motion_rev_day": 15.08845228
    },
    {
      "epoch": "2026-03-30T01:47:00.190464Z",
      "apogee_km": 540.6976235787806,
      "perigee_km": 538.7798500670178,
      "latitude_deg": 2.8738871326947654e-05,
      "longitude_deg": 113.39146137290255,
      "height_km": 540.5743279588621,
      "semi_major_axis_km": 6917.875736822899,
      "eccentricity": 0.00013861,
      "inclination_deg": 53.2177,
      "raan_deg": 327.6135,
      "arg_perigee_deg": 86.4058,
      "mean_anomaly_deg": 273.7093,
      "mean_motion_rev_day": 15.08841522
    },
    {
      "epoch": "2026-03-30T22:27:01.319616Z",
      "apogee_km": 540.7079922628291,
      "perigee_km": 538.8016979859876,
      "latitude_deg": 1.2025758114314057e-05,
      "longitude_deg": 158.6714824196451,
      "height_km": 540.6093233123083,
      "semi_major_axis_km": 6917.891845124408,
      "eccentricity": 0.00013778,
      "inclination_deg": 53.217,
      "raan_deg": 323.747,
      "arg_perigee_deg": 87.525,
      "mean_anomaly_deg": 272.59,
      "mean_motion_rev_day": 15.08836252
    },
    {
      "epoch": "2026-03-31T01:37:47.582976Z",
      "apogee_km": 540.6350432692279,
      "perigee_km": 538.8673844728191,
      "latitude_deg": 1.2769221125017688e-05,
      "longitude_deg": 110.25304099431246,
      "height_km": 540.56264258893,
      "semi_major_axis_km": 6917.888213871023,
      "eccentricity": 0.00012776,
      "inclination_deg": 53.2174,
      "raan_deg": 323.1519,
      "arg_perigee_deg": 84.5204,
      "mean_anomaly_deg": 275.5934,
      "mean_motion_rev_day": 15.0883744
    },
    {
      "epoch": "2026-03-31T22:17:48.579936Z",
      "apogee_km": 540.6146843697024,
      "perigee_km": 538.9065170941303,
      "latitude_deg": 2.2198199128050996e-05,
      "longitude_deg": 155.53373399960265,
      "height_km": 540.5190203224693,
      "semi_major_axis_km": 6917.897600731916,
      "eccentricity": 0.00012346,
      "inclination_deg": 53.2175,
      "raan_deg": 319.2855,
      "arg_perigee_deg": 80.7363,
      "mean_anomaly_deg": 279.3769,
      "mean_motion_rev_day": 15.08834369
    },
    {
      "epoch": "2026-04-02T07:40:54.242400Z",
      "apogee_km": 540.6202423259065,
      "perigee_km": 538.8575675453294,
      "latitude_deg": -2.3265678209850203e-05,
      "longitude_deg": 7.145338772474854,
      "height_km": 540.5415861132029,
      "semi_major_axis_km": 6917.875904935618,
      "eccentricity": 0.0001274,
      "inclination_deg": 53.2182,
      "raan_deg": 313.0418,
      "arg_perigee_deg": 83.9268,
      "mean_anomaly_deg": 276.1869,
      "mean_motion_rev_day": 15.08841467
    },
    {
      "epoch": "2026-04-02T21:59:22.831008Z",
      "apogee_km": 540.6342742626175,
      "perigee_km": 538.8682757437746,
      "latitude_deg": -1.7967087294513356e-05,
      "longitude_deg": 149.26311766002175,
      "height_km": 540.6030227255534,
      "semi_major_axis_km": 6917.888275003195,
      "eccentricity": 0.00012764,
      "inclination_deg": 53.2192,
      "raan_deg": 310.3663,
      "arg_perigee_deg": 87.1262,
      "mean_anomaly_deg": 272.9876,
      "mean_motion_rev_day": 15.0883742
    },
    {
      "epoch": "2026-04-03T18:39:23.776128Z",
      "apogee_km": 540.98409989215,
      "perigee_km": 538.500581208893,
      "latitude_deg": -7.366839281915047e-05,
      "longitude_deg": -165.45632237854377,
      "height_km": 540.4705815110132,
      "semi_major_axis_km": 6917.879340550521,
      "eccentricity": 0.0001795,
      "inclination_deg": 53.2175,
      "raan_deg": 306.4996,
      "arg_perigee_deg": 82.2758,
      "mean_anomaly_deg": 277.8437,
      "mean_motion_rev_day": 15.08840343
    },
    {
      "epoch": "2026-04-03T23:25:33.159072Z",
      "apogee_km": 540.6580527690203,
      "perigee_km": 538.8324236463568,
      "latitude_deg": -1.8671731550081503e-05,
      "longitude_deg": 121.9177558140019,
      "height_km": 540.5319357550003,
      "semi_major_axis_km": 6917.882238207688,
      "eccentricity": 0.00013195,
      "inclination_deg": 53.2182,
      "raan_deg": 305.6086,
      "arg_perigee_deg": 83.1313,
      "mean_anomaly_deg": 276.9829,
      "mean_motion_rev_day": 15.08839395
    },
    {
      "epoch": "2026-04-05T13:34:48.166464Z",
      "apogee_km": 540.7108144115309,
      "perigee_km": 538.7915155190431,
      "latitude_deg": 3.938070654343065e-06,
      "longitude_deg": -99.09839617196374,
      "height_km": 540.4913093454028,
      "semi_major_axis_km": 6917.888164965287,
      "eccentricity": 0.00013872,
      "inclination_deg": 53.2176,
      "raan_deg": 298.4719,
      "arg_perigee_deg": 80.6704,
      "mean_anomaly_deg": 279.4445,
      "mean_motion_rev_day": 15.08837456
    },
    {
      "epoch": "2026-04-05T19:56:20.783904Z",
      "apogee_km": 540.6335934518183,
      "perigee_km": 538.8736820735703,
      "latitude_deg": 1.1630547892710925e-05,
      "longitude_deg": 164.06464574215764,
      "height_km": 540.546051798234,
      "semi_major_axis_km": 6917.890637762694,
      "eccentricity": 0.0001272,
      "inclination_deg": 53.2176,
      "raan_deg": 297.282,
      "arg_perigee_deg": 83.2488,
      "mean_anomaly_deg": 276.8649,
      "mean_motion_rev_day": 15.08836647
    },
    {
      "epoch": "2026-04-05T23:07:07.011840Z",
      "apogee_km": 540.6309434924351,
      "perigee_km": 538.8666059044563,
      "latitude_deg": -8.417925044607097e-07,
      "longitude_deg": 115.64604208766123,
      "height_km": 540.5946440048398,
      "semi_major_axis_km": 6917.885774698446,
      "eccentricity": 0.00012752,
      "inclination_deg": 53.2174,
      "raan_deg": 296.6866,
      "arg_perigee_deg": 86.7536,
      "mean_anomaly_deg": 273.3602,
      "mean_motion_rev_day": 15.08838238
    },
    {
      "epoch": "2026-04-06T22:57:53.447040Z",
      "apogee_km": 540.66659988633,
      "perigee_km": 538.7796843539654,
      "latitude_deg": -3.101878542729047e-05,
      "longitude_deg": 112.51270726118777,
      "height_km": 540.6015878150181,
      "semi_major_axis_km": 6917.860142120147,
      "eccentricity": 0.00013638,
      "inclination_deg": 53.2175,
      "raan_deg": 292.2261,
      "arg_perigee_deg": 88.9509,
      "mean_anomaly_deg": 271.1639,
      "mean_motion_rev_day": 15.08846624
    },
    {
      "epoch": "2026-04-07T19:37:55.345152Z",
      "apogee_km": 540.7571952451544,
      "perigee_km": 538.7814412006692,
      "latitude_deg": 2.7571132991283138e-05,
      "longitude_deg": 157.790068023275,
      "height_km": 540.704154499181,
      "semi_major_axis_km": 6917.906318222911,
      "eccentricity": 0.0001428,
      "inclination_deg": 53.2183,
      "raan_deg": 288.3601,
      "arg_perigee_deg": 92.2704,
      "mean_anomaly_deg": 267.8452,
      "mean_motion_rev_day": 15.08831517
    },
    {
      "epoch": "2026-04-08T05:10:14.418624Z",
      "apogee_km": 540.7638369843871,
      "perigee_km": 538.7853142737576,
      "latitude_deg": 6.254480323396955e-06,
      "longitude_deg": 12.534740498729981,
      "height_km": 540.7034481543312,
      "semi_major_axis_km": 6917.911575629072,
      "eccentricity": 0.000143,
      "inclination_deg": 53.2184,
      "raan_deg": 286.576,
      "arg_perigee_deg": 91.921,
      "mean_anomaly_deg": 268.1946,
      "mean_motion_rev_day": 15.08829797
    },
    {
      "epoch": "2026-04-09T20:54:54.049824Z",
      "apogee_km": 540.6642553323318,
      "perigee_km": 538.9043361546937,
      "latitude_deg": 1.2576301762247097e-05,
      "longitude_deg": 127.30476811536695,
      "height_km": 540.9105827819488,
      "semi_major_axis_km": 6917.921295743512,
      "eccentricity": 0.0001272,
      "inclination_deg": 53.2165,
      "raan_deg": 279.1434,
      "arg_perigee_deg": 105.1858,
      "mean_anomaly_deg": 254.9275,
      "mean_motion_rev_day": 15.08826617
    },
    {
      "epoch": "2026-04-10T04:51:49.669344Z",
      "apogee_km": 540.7199049084757,
      "perigee_km": 538.8202476253318,
      "latitude_deg": -4.3058355012478304e-05,
      "longitude_deg": 6.260532965720223,
      "height_km": 540.8781172602534,
      "semi_major_axis_km": 6917.9070762669035,
      "eccentricity": 0.0001373,
      "inclination_deg": 53.2173,
      "raan_deg": 277.6574,
      "arg_perigee_deg": 102.9165,
      "mean_anomaly_deg": 257.198,
      "mean_motion_rev_day": 15.08831269
    },
    {
      "epoch": "2026-04-11T20:36:26.909856Z",
      "apogee_km": 540.8180190415842,
      "perigee_km": 538.647191559442,
      "latitude_deg": 4.418141139406421e-05,
      "longitude_deg": 121.03371093652824,
      "height_km": 541.0568239348277,
      "semi_major_axis_km": 6917.869605300513,
      "eccentricity": 0.0001569,
      "inclination_deg": 53.2187,
      "raan_deg": 270.2179,
      "arg_perigee_deg": 113.2523,
      "mean_anomaly_deg": 246.8635,
      "mean_motion_rev_day": 15.08843528
    }
  ]
}